93P/Lovas,e,12.2086,339.5535,75.0156,4.374645,0.1077184,0.61399070,315.5236,03/16.0/2025,2000,g  9.5,6.0
# From MPEC 2024-R10
94P/Russell,e,6.1877,70.8501,92.3733,3.510091,0.1498741,0.36593458,99.6475,03/16.0/2025,2000,g  9.0,6.0
# From MPC 75717
95P/Chiron,e,6.9268,209.1941,339.3526,13.70070,0.0194352,0.37803244,207.9370,03/16.0/2025,2000,g  6.5,2.0
# From MPEC 2025-D44
96P/Machholz,e,57.5870,93.9629,14.7362,3.031031,0.1867749,0.96169513,144.7002,03/16.0/2025,2000,g 13.0,4.8
# From MPC106348
96P-B/Machholz,e,57.5028,14.6175,94.0007,3.030008,0.1868695,0.96172766,144.7918,03/16.0/2025,2000,g 13.0,4.8
# From MPC103849
96P-C/Machholz,e,58.5311,94.3495,15.5380,3.011920,0.1885553,0.95889850,359.8715,07/14.0/2012,2000,g  9.0,4.0
# From MPEC 2024-GJ3
97P/Metcalf-Brewington,e,17.9403,184.0764,230.1822,4.769370,0.0946264,0.46005099,106.3564,03/16.0/2025,2000,g  5.5,6.0
# From MPEC 2021-W31
98P/Takamizawa,e,10.6176,114.5424,157.7073,3.784175,0.1338897,0.56513080,205.0628,03/16.0/2025,2000,g  9.0,8.0
# From MPEC 2024-R10
99P/Kowal,e,4.3391,28.0715,174.5470,6.094150,0.0655140,0.22868109,70.2254,03/16.0/2025,2000,g  4.5,6.0
# From MPEC 2023-OA6
100P/Hartley,e,25.5674,37.6857,181.9358,3.430371,0.1551288,0.41138281,147.1706,03/16.0/2025,2000,g  9.0,8.0
# From MPEC 2024-R10
101P/Chernykh,e,5.0486,116.1279,277.9707,5.816788,0.0702553,0.59575441,132.6969,03/16.0/2025,2000,g 10.0,4.8
# From MPC105241
101P-B/Chernykh,e,5.0502,278.5101,115.5918,5.832329,0.0699747,0.59596535,130.9235,03/16.0/2025,2000,g  9.0,4.0
# From MPEC 2022-C56
102P/Shoemaker,e,25.8565,339.3991,20.6788,3.819866,0.1320176,0.45609965,199.9054,03/16.0/2025,2000,g  6.5,8.0
# From MPEC 2025-EG2
103P/Hartley,e,13.6090,219.7544,181.3245,3.475470,0.1521191,0.69357294,79.1841,03/16.0/2025,2000,g  8.5,8.0
# From MPEC 2023-G31
104P/Kowal,e,5.7015,207.1906,227.2931,3.208668,0.1714814,0.66592896,198.6858,03/16.0/2025,2000,g 16.0,4.0
# From MPEC 2024-F34
105P/SingerBrewster,e,9.1673,192.3959,46.3314,3.472937,0.1522856,0.40911898,7.9564,03/16.0/2025,2000,g 11.5,6.0
# From MPEC 2024-R10
106P/Schuster,e,19.5358,48.8653,353.7951,3.768085,0.1347482,0.59362740,175.8266,03/16.0/2025,2000,g 14.0,4.8
# From MPEC 2015-M77
107P/Wilson-Harrington,e,2.7986,266.7278,95.5210,2.625892,0.2316268,0.63103064,216.4921,03/16.0/2025,2000,g  9.0,4.0
# From MPEC 2022-P82
108P/Ciffreo,e,11.4336,50.3007,354.5295,3.743592,0.1360728,0.55578620,174.5160,03/16.0/2025,2000,g  8.0,12.0
# From  105, 420
109P/Swift-Tuttle,e,113.1605,139.6702,153.2725,26.20703,0.0073464,0.96281791,86.4905,03/16.0/2025,2000,g  4.0,6.0
# From MPEC 2023-KD6
110P/Hartley,e,11.7111,287.4822,167.5495,3.603651,0.1440754,0.31921601,179.1694,03/16.0/2025,2000,g  1.0,12.0
# From MPC 75718
111P/Helin-Roman-Crockett,e,4.2262,89.8100,1.3948,4.152810,0.1164638,0.10719801,159.0290,03/16.0/2025,2000,g  5.0,8.0
# From MPEC 2021-S45
112P/Urata-Niijima,e,24.2036,31.8176,21.5434,3.522613,0.1490756,0.59086355,277.2965,03/16.0/2025,2000,g 14.0,6.0
# From MPEC 2024-JU4
113P/Spitaler,e,5.2875,306.6257,115.7230,3.695780,0.1387219,0.41975716,141.2421,03/16.0/2025,2000,g 13.5,4.0
# From MPEC 2023-A50
114P/Wiseman-Skiff,e,18.3043,271.0273,172.8023,3.540237,0.1479638,0.55613861,278.9252,03/16.0/2025,2000,g 11.5,6.0
# From MPEC 2023-J29
115P/Maury,e,11.6787,175.9993,120.9173,4.271538,0.1116420,0.51765638,189.0201,03/16.0/2025,2000,g 10.5,6.0
# From MPEC 2024-RQ6
116P/Wild,e,3.6043,20.9609,173.1633,3.486290,0.1514115,0.37059175,147.3724,03/16.0/2025,2000,g  2.5,10.0
# From MPEC 2025-EB9
117P/Helin-Roman-Alu,e,8.6895,58.8283,224.5015,4.112603,0.1181759,0.25377168,115.5023,03/16.0/2025,2000,g  2.5,8.0
# From MPEC 2024-MB8
118P/Shoemaker-Levy,e,10.0912,142.0591,314.9387,3.348845,0.1608280,0.45382112,135.4658,03/16.0/2025,2000,g 12.0,4.0
# From MPEC 2024-R10
119P/Parker-Hartley,e,7.3928,104.5437,322.2567,3.808944,0.1325859,0.38819342,125.5002,03/16.0/2025,2000,g  3.5,8.0
# From MPEC 2022-CN4
120P/Mueller,e,8.4823,358.7096,36.7764,3.969562,0.1246207,0.37428088,175.5044,03/16.0/2025,2000,g 12.0,4.0
# From MPEC 2025-EB9
121P/Shoemaker-Holt,e,20.1621,94.1051,11.9237,4.588694,0.1002699,0.18671498,62.6231,03/16.0/2025,2000,g  6.5,8.0
# From MPC 75718
122P/de Vico,e,86.0406,79.7441,13.0013,17.63254,0.0133116,0.96257840,143.2407,03/16.0/2025,2000,g  7.5,5.2
# From MPEC 2021-F20
123P/West-Hartley,e,15.2805,45.9005,103.9715,3.883063,0.1288079,0.44449155,288.4780,03/16.0/2025,2000,g 12.2,4.0
# From MPEC 2024-UQ8
124P/Mrkos,e,31.4090,0.0052,185.1236,3.376329,0.1588682,0.48644545,286.1823,03/16.0/2025,2000,g 13.5,2.8
# From MPEC 2024-UA9
125P/Spacewatch,e,9.9858,153.1496,87.1140,3.127987,0.1781585,0.51200065,66.5874,03/16.0/2025,2000,g 13.0,6.0
# From MPEC 2024-JU4
126P/IRAS,e,45.8708,357.8584,356.5668,5.628886,0.0738024,0.69609906,45.7489,03/16.0/2025,2000,g  6.0,8.0
# From MPEC 2024-R10
127P/Holt-Olmstead,e,14.2966,13.6157,6.3398,3.454131,0.1535309,0.35885816,145.6780,03/16.0/2025,2000,g 11.0,6.0
# From MPC 89014
128P/Shoemaker-Holt,e,4.3707,214.3246,210.4736,4.482770,0.1038447,0.32240135,309.3555,03/16.0/2025,2000,g  8.5,4.0
# From MPEC 2024-R10
129P/Shoemaker-Levy,e,3.4420,184.8488,307.8089,4.293635,0.1107813,0.08590527,92.3960,03/16.0/2025,2000,g 11.0,4.0
# From MPEC 2025-EB9
130P/McNaught-Hughes,e,6.0627,70.1809,246.2197,3.384624,0.1582845,0.46110506,53.0126,03/16.0/2025,2000,g 10.0,6.0
# From MPEC 2025-A40
131P/Mueller,e,7.3617,214.1393,179.2313,3.675188,0.1398894,0.34480195,312.9144,03/16.0/2025,2000,g 11.0,4.0
# From MPEC 2024-BE0
132P/Helin-Roman-Alu,e,5.3784,173.9828,216.5022,3.892092,0.1283599,0.56414699,156.4629,03/16.0/2025,2000,g 11.0,6.0
# From MPC 94676
133P/Elst-Pizarro,e,1.3899,160.1007,131.8714,3.163137,0.1751972,0.15569926,54.2906,03/16.0/2025,2000,g 15.4,2.0
# From MPC 89012
134P/Kowal-Vavrova,e,4.3335,201.9971,18.6755,6.272189,0.0627445,0.58540864,249.5662,03/16.0/2025,2000,g 11.5,4.0
# From MPEC 2024-C04
135P/Shoemaker-Levy,e,6.0634,213.0200,22.3880,3.801336,0.1329841,0.29361058,142.8984,03/16.0/2025,2000,g  7.0,8.0
# From MPEC 2025-CE3
136P/Mueller,e,9.4275,137.4227,225.2991,4.185067,0.1151199,0.29310612,8.2461,03/16.0/2025,2000,g 11.0,4.0
# From MPEC 2023-J29
137P/Shoemaker-Levy,e,4.8602,232.9255,141.2236,4.523396,0.1024489,0.57308598,233.8655,03/16.0/2025,2000,g 11.0,4.0
# From MPEC 2016-U66
138P/Shoemaker-Levy,e,10.0995,309.2723,95.6832,3.617369,0.1432566,0.53158046,306.5245,03/16.0/2025,2000,g 15.0,6.0
# From MPEC 2020-HN5
139P/Vaisala-Oterma,e,2.3375,242.1825,165.9604,4.513972,0.1027699,0.24834865,271.7545,03/16.0/2025,2000,g  9.5,4.0
# From MPEC 2015-E14
140P/Bowell-Skiff,e,3.7075,343.3782,172.1688,6.411857,0.0607055,0.69537686,214.6358,03/16.0/2025,2000,g 11.5,6.0
# From MPEC 2024-R10
141P/Machholz,e,13.9626,241.7764,153.6447,3.057088,0.1843920,0.73592826,285.6982,03/16.0/2025,2000,g 12.0,12.0
# From MPEC 2015-KD9
141P-A/Machholz,e,13.9416,153.5096,241.9235,3.057303,0.1843726,0.73594639,285.6388,03/16.0/2025,2000,g 12.0,12.0
# From MPC 24216
141P-B/Machholz,e,13.9855,153.5855,241.8125,3.055675,0.1845199,0.73570643,287.0521,03/16.0/2025,2000,g  9.0,4.0
# From MPC 37026
141P-D/Machholz,e,13.8334,153.2357,242.1718,3.065812,0.1836055,0.73689387,281.3130,03/16.0/2025,2000,g  9.0,4.0
# From MPEC 2015-R12
141P-E/Machholz,e,12.8152,246.1856,149.2667,3.012914,0.1884620,0.75023267,359.9529,09/19.0/1994,2000,g  9.0,4.0
# From MPEC 2015-R12
141P-F/Machholz,e,12.7898,246.1881,149.2374,3.010224,0.1887147,0.75000946,359.9630,09/19.0/1994,2000,g  9.0,4.0
# From MPEC 2015-R12
141P-G/Machholz,e,12.8259,246.3146,149.0784,3.005818,0.1891298,0.74964304,359.9802,09/19.0/1994,2000,g  9.0,4.0
# From MPC 95735
141P-H/Machholz,e,12.8431,246.0900,149.4500,3.008012,0.1889230,0.74682218,359.9270,08/24.0/2015,2000,g 18.5,4.0
# From MPEC 2022-SU8
141P-I/Machholz,e,13.9415,153.4643,241.9333,3.047770,0.1852383,0.73517396,287.0917,03/16.0/2025,2000,g 17.5,4.0
# From MPEC 2024-C04
142P/Ge-Wang,e,12.2455,175.9578,174.0724,5.003472,0.0880637,0.49604971,123.6801,03/16.0/2025,2000,g  8.5,6.0
# From MPEC 2025-DP4
143P/Kowal-Mrkos,e,5.5194,242.7985,304.4465,4.778167,0.0943653,0.38747749,298.8064,03/16.0/2025,2000,g 13.5,2.0
# From MPEC 2024-YC7
144P/Kushida,e,3.9319,242.9242,216.3519,3.833317,0.1313233,0.63497483,54.5236,03/16.0/2025,2000,g  8.5,8.0
# From MPC108598
145P/Shoemaker-Levy,e,11.2765,26.7969,10.3723,4.130894,0.1173919,0.54250920,322.2128,03/16.0/2025,2000,g 13.5,4.0
# From MPEC 2025-CE3
146P/Shoemaker-LINEAR,e,23.1195,53.3679,317.0623,4.026939,0.1219667,0.64757873,27.1460,03/16.0/2025,2000,g 15.0,4.0
# From MPEC 2024-UQ8
147P/Kushida-Muramatsu,e,2.3115,91.6669,348.5962,4.009780,0.1227505,0.21186292,57.0206,03/16.0/2025,2000,g 14.0,4.0
# From MPEC 2024-JU4
148P/Anderson-LINEAR,e,3.6590,89.1951,8.0748,3.620094,0.1430949,0.55039522,143.9225,03/16.0/2025,2000,g 16.0,2.0
# From MPEC 2023-J29
149P/Mueller,e,34.2330,143.7775,30.2711,4.128652,0.1174875,0.32441204,284.7255,03/16.0/2025,2000,g  8.0,8.0
# From MPEC 2024-NE4
150P/LONEOS,e,18.5485,272.0557,246.1216,3.871692,0.1293757,0.54917721,47.6741,03/16.0/2025,2000,g 13.5,4.0
# From MPEC 2022-K19
151P/Helin,e,4.7257,143.1291,216.1579,5.765854,0.0711883,0.57267733,244.9773,03/16.0/2025,2000,g 10.0,6.0
# From MPEC 2025-EB9
152P/Helin-Lawrence,e,9.8796,91.7769,164.4466,4.485515,0.1037494,0.30706295,120.0654,03/16.0/2025,2000,g 11.5,4.0
# From MPC 46101
153P/Ikeya-Zhang,e,28.4951,93.7983,34.2311,50.44922,0.0027506,0.99013489,0.0000,03/11.0617/2002,2000,g  9.0,4.0
# From MPEC 2025-EB9
154P/Brewington,e,17.6365,342.9979,47.9427,4.797235,0.0938032,0.67634002,25.8672,03/16.0/2025,2000,g  2.5,12.0
# From MPEC 2022-YN2
155P/Shoemaker,e,6.4106,97.1568,14.5265,6.571559,0.0585061,0.72764226,113.8428,03/16.0/2025,2000,g 10.0,4.8
# From MPEC 2023-J29
156P/Russell-LINEAR,e,17.2628,35.3369,0.5242,3.462595,0.1529684,0.61493108,241.3844,03/16.0/2025,2000,g 15.5,2.0
# From MPEC 2024-D33
157P/Tritton,e,12.4240,287.4995,155.1700,3.547817,0.1474899,0.55683611,135.3755,03/16.0/2025,2000,g 10.0,4.0
# From MPEC 2022-VC5
